[{"OBJECT_NAME":"ONEWEB-0090","OBJECT_ID":"2020-020D","EPOCH":"2026-03-09T22:49:14.308320","MEAN_MOTION":13.11417028,"ECCENTRICITY":0.0001887,"INCLINATION":87.8867,"RA_OF_ASC_NODE":40.7949,"ARG_OF_PERICENTER":84.8169,"MEAN_ANOMALY":275.3174,"EPHEMERIS_TYPE":0,"CLASSIFICATION_TYPE":"U","NORAD_CAT_ID":45427,"ELEMENT_SET_NO":999,"REV_AT_EPOCH":28966,"BSTAR":-0.001269783,"MEAN_MOTION_DOT":-4.37e-6,"MEAN_MOTION_DDOT":0},{"OBJECT_NAME":"SS 2","OBJECT_ID":"1977-112E","EPOCH":"2026-03-09T21:50:48.413184","MEAN_MOTION":13.91112922,"ECCENTRICITY":0.05221989,"INCLINATION":63.3355,"RA_OF_ASC_NODE":261.535,"ARG_OF_PERICENTER":160.9398,"MEAN_ANOMALY":201.2029,"EPHEMERIS_TYPE":0,"CLASSIFICATION_TYPE":"U","NORAD_CAT_ID":10544,"ELEMENT_SET_NO":999,"REV_AT_EPOCH":33858,"BSTAR":0.00039726462,"MEAN_MOTION_DOT":1.41e-5,"MEAN_MOTION_DDOT":0}]
